[
    {
        "Altitude(m)": 566947.9872605675,
        "Argument of Periapsis(deg)": 0.033114955553567506,
        "Eccentricity": 0.0,
        "Inclination(deg)": 53.0,
        "Latitude(deg)": -41.03653076147617,
        "Longitude(deg)": -24.703846378834644,
        "Mean Anomaly(deg)": -54.99653566211209,
        "RAAN(deg)": 119.95071684264008,
        "Satellite Name": "Starlink Shell 1 543",
        "Satellite Number": 543,
        "Semi-Major Axis(m)": 6931778.249405717,
        "Time(s)": 950
    },
    {
        "Altitude(m)": 566790.4207497608,
        "Argument of Periapsis(deg)": 0.03346353403307874,
        "Eccentricity": 0.0,
        "Inclination(deg)": 53.0,
        "Latitude(deg)": -40.65532340173034,
        "Longitude(deg)": -24.09067352069972,
        "Mean Anomaly(deg)": -54.3697044585554,
        "RAAN(deg)": 119.95019807256261,
        "Satellite Name": "Starlink Shell 1 543",
        "Satellite Number": 543,
        "Semi-Major Axis(m)": 6931778.249405717,
        "Time(s)": 960
    },
    {
        "Altitude(m)": 566631.3692887562,
        "Argument of Periapsis(deg)": 0.03381211251258998,
        "Eccentricity": 0.0,
        "Inclination(deg)": 53.0,
        "Latitude(deg)": -40.27041508175223,
        "Longitude(deg)": -23.48492260437133,
        "Mean Anomaly(deg)": -53.74287325499861,
        "RAAN(deg)": 119.94967930248512,
        "Satellite Name": "Starlink Shell 1 543",
        "Satellite Number": 543,
        "Semi-Major Axis(m)": 6931778.249405717,
        "Time(s)": 970
    },
    {
        "Altitude(m)": 566470.8948678571,
        "Argument of Periapsis(deg)": 0.034160690992101214,
        "Eccentricity": 0.0,
        "Inclination(deg)": 53.0,
        "Latitude(deg)": -39.88189517079444,
        "Longitude(deg)": -22.886479109147174,
        "Mean Anomaly(deg)": -53.11604205144196,
        "RAAN(deg)": 119.94916053240766,
        "Satellite Name": "Starlink Shell 1 543",
        "Satellite Number": 543,
        "Semi-Major Axis(m)": 6931778.249405717,
        "Time(s)": 980
    },
    {
        "Altitude(m)": 566309.059965874,
        "Argument of Periapsis(deg)": 0.034509269471612446,
        "Eccentricity": 0.0,
        "Inclination(deg)": 53.0,
        "Latitude(deg)": -39.48985122006663,
        "Longitude(deg)": -22.295226722880905,
        "Mean Anomaly(deg)": -52.489210847885204,
        "RAAN(deg)": 119.9486417623302,
        "Satellite Name": "Starlink Shell 1 543",
        "Satellite Number": 543,
        "Semi-Major Axis(m)": 6931778.249405717,
        "Time(s)": 990
    }
]